IRIDIUM 106             
1 41917U 17003A   24194.57298840  .00000038  00000+0  63517-5 0  9993
2 41917  86.3968  22.9735 0002578  85.5292 274.6199 14.34216564392216
IRIDIUM 103             
1 41918U 17003B   24194.49053274  .00000039  00000+0  67782-5 0  9994
2 41918  86.3967  22.9097 0002224  99.0434 261.1013 14.34217217392226
IRIDIUM 109             
1 41919U 17003C   24194.56664795  .00000034  00000+0  51353-5 0  9991
2 41919  86.3968  22.9257 0001830  95.5670 264.5735 14.34218353392209
IRIDIUM 102             
1 41920U 17003D   24194.60470022  .00000065  00000+0  16141-4 0  9995
2 41920  86.3968  22.8483 0001985  87.3632 272.7791 14.34217193392292
IRIDIUM 105             
1 41921U 17003E   24194.85453383  .00000481  00000+0  16466-3 0  9995
2 41921  86.3992 351.1853 0002198  94.6196 265.5251 14.34214606394189
IRIDIUM 104             
1 41922U 17003F   24194.61738482  .00000013  00000+0 -22766-5 0  9990
2 41922  86.3969  22.8745 0001896  98.9421 261.1989 14.34216627392282
IRIDIUM 114             
1 41923U 17003G   24194.62372916  .00000113  00000+0  33264-4 0  9992
2 41923  86.3969  22.8581 0002405  86.4377 273.7094 14.34217245392261
IRIDIUM 108             
1 41924U 17003H   24194.58225145  .00000047  00000+0  95463-5 0  9995
2 41924  86.3984 351.2220 0002348  88.2121 271.9343 14.34217661394116
